start=new Date('2021-10-15T00:00:00.000Z').valueOf();
sats=[{"MEAN_ANOMALY":"284.8576","OBJECT_NAME":"STARLINK-1613","TIME_SYSTEM":"UTC","SEMIMAJOR_AXIS":"6925.424","DECAY_DATE":null,"ARG_OF_PERICENTER":"75.2561","COUNTRY_CODE":"US","LAUNCH_DATE":"2020-08-18","NORAD_CAT_ID":"46165","CLASSIFICATION_TYPE":"U","REF_FRAME":"TEME","MEAN_ELEMENT_THEORY":"SGP4","CENTER_NAME":"EARTH","FILE":"3163138","BSTAR":"-0.00014367000000","SITE":"AFETR","OBJECT_TYPE":"PAYLOAD","PERIAPSIS":"546.365","REV_AT_EPOCH":"6387","MEAN_MOTION_DOT":"-0.00002419","RCS_SIZE":"LARGE","TLE_LINE1":"1 46165U 20057BA  21287.81881300 -.00002419  00000-0 -14367-3 0  9997","ECCENTRICITY":"0.00013340","APOAPSIS":"548.213","EPOCH":"2021-10-14T19:39:05.443200","EPHEMERIS_TYPE":"0","MEAN_MOTION":"15.06375350","GP_ID":"187190107","OBJECT_ID":"2020-057BA","PERIOD":"95.594","INCLINATION":"53.0537","TLE_LINE2":"2 46165  53.0537 330.1526 0001334  75.2561 284.8576 15.06375350 63873","RA_OF_ASC_NODE":"330.1526","ELEMENT_SET_NO":"999","MEAN_MOTION_DDOT":"0.0000000000000"},{"OBJECT_NAME":"STARLINK-1615","MEAN_ANOMALY":"275.0127","TIME_SYSTEM":"UTC","NORAD_CAT_ID":"46166","LAUNCH_DATE":"2020-08-18","COUNTRY_CODE":"US","DECAY_DATE":null,"ARG_OF_PERICENTER":"85.0994","SEMIMAJOR_AXIS":"6925.388","SITE":"AFETR","FILE":"3163138","BSTAR":"-0.00017354000000","MEAN_ELEMENT_THEORY":"SGP4","CENTER_NAME":"EARTH","CLASSIFICATION_TYPE":"U","REF_FRAME":"TEME","OBJECT_TYPE":"PAYLOAD","PERIAPSIS":"546.447","MEAN_MOTION_DOT":"-0.00002864","REV_AT_EPOCH":"6388","ECCENTRICITY":"0.00011640","TLE_LINE1":"1 46166U 20057BB  21287.85933571 -.00002864  00000-0 -17354-3 0  9993","RCS_SIZE":"LARGE","EPOCH":"2021-10-14T20:37:26.605344","APOAPSIS":"548.059","OBJECT_ID":"2020-057BB","GP_ID":"187189857","MEAN_MOTION":"15.06387207","EPHEMERIS_TYPE":"0","PERIOD":"95.593","INCLINATION":"53.0543","TLE_LINE2":"2 46166  53.0543 329.9576 0001164  85.0994 275.0127 15.06387207 63881","RA_OF_ASC_NODE":"329.9576","MEAN_MOTION_DDOT":"0.0000000000000","ELEMENT_SET_NO":"999"},{"OBJECT_TYPE":"PAYLOAD","REV_AT_EPOCH":"6449","MEAN_MOTION_DOT":"-0.00000210","PERIAPSIS":"546.183","TIME_SYSTEM":"UTC","MEAN_ANOMALY":"267.8049","OBJECT_NAME":"STARLINK-1626","CLASSIFICATION_TYPE":"U","REF_FRAME":"TEME","MEAN_ELEMENT_THEORY":"SGP4","CENTER_NAME":"EARTH","FILE":"3161926","BSTAR":"0.00000478950000","SITE":"AFETR","SEMIMAJOR_AXIS":"6925.386","ARG_OF_PERICENTER":"92.3117","DECAY_DATE":null,"LAUNCH_DATE":"2020-08-18","COUNTRY_CODE":"US","NORAD_CAT_ID":"46167","RA_OF_ASC_NODE":"331.3900","TLE_LINE2":"2 46167  53.0551 331.3900 0001542  92.3117 267.8049 15.06387838 64497","INCLINATION":"53.0551","PERIOD":"95.593","ELEMENT_SET_NO":"999","MEAN_MOTION_DDOT":"0.0000000000000","TLE_LINE1":"1 46167U 20057BC  21287.54234794 -.00000210  00000-0  47895-5 0  9998","RCS_SIZE":"LARGE","ECCENTRICITY":"0.00015420","EPHEMERIS_TYPE":"0","MEAN_MOTION":"15.06387838","GP_ID":"187141417","OBJECT_ID":"2020-057BC","APOAPSIS":"548.319","EPOCH":"2021-10-14T13:00:58.862016"},{"TLE_LINE1":"1 46168U 20057BD  21287.71187422 -.00000080  00000-0  13543-4 0  9990","RCS_SIZE":"LARGE","ECCENTRICITY":"0.00014280","APOAPSIS":"548.226","EPOCH":"2021-10-14T17:05:05.932608","EPHEMERIS_TYPE":"0","OBJECT_ID":"2020-057BD","MEAN_MOTION":"15.06392205","GP_ID":"187189356","PERIOD":"95.593","INCLINATION":"53.0531","RA_OF_ASC_NODE":"280.6227","TLE_LINE2":"2 46168  53.0531 280.6227 0001428  89.3660 270.7493 15.06392205 64553","MEAN_MOTION_DDOT":"0.0000000000000","ELEMENT_SET_NO":"999","MEAN_ANOMALY":"270.7493","OBJECT_NAME":"STARLINK-1627","TIME_SYSTEM":"UTC","SEMIMAJOR_AXIS":"6925.372","LAUNCH_DATE":"2020-08-18","COUNTRY_CODE":"US","NORAD_CAT_ID":"46168","DECAY_DATE":null,"ARG_OF_PERICENTER":"89.3660","CLASSIFICATION_TYPE":"U","REF_FRAME":"TEME","FILE":"3163138","BSTAR":"0.00001354300000","SITE":"AFETR","MEAN_ELEMENT_THEORY":"SGP4","CENTER_NAME":"EARTH","OBJECT_TYPE":"PAYLOAD","PERIAPSIS":"546.249","REV_AT_EPOCH":"6455","MEAN_MOTION_DOT":"-0.00000080"},{"ECCENTRICITY":"0.00013830","TLE_LINE1":"1 46169U 20057BE  21287.82604211 -.00003350  00000-0 -21096-3 0  9998","RCS_SIZE":"LARGE","EPOCH":"2021-10-14T19:49:30.038304","APOAPSIS":"550.731","MEAN_MOTION":"15.05565396","GP_ID":"187189607","OBJECT_ID":"2020-057BE","EPHEMERIS_TYPE":"0","PERIOD":"95.645","INCLINATION":"53.0010","TLE_LINE2":"2 46169  53.0010 330.1061 0001383  87.8845 272.2302 15.05565396 63851","RA_OF_ASC_NODE":"330.1061","ELEMENT_SET_NO":"999","MEAN_MOTION_DDOT":"0.0000000000000","OBJECT_NAME":"STARLINK-1628","MEAN_ANOMALY":"272.2302","TIME_SYSTEM":"UTC","ARG_OF_PERICENTER":"87.8845","DECAY_DATE":null,"LAUNCH_DATE":"2020-08-18","NORAD_CAT_ID":"46169","COUNTRY_CODE":"US","SEMIMAJOR_AXIS":"6927.908","MEAN_ELEMENT_THEORY":"SGP4","CENTER_NAME":"EARTH","BSTAR":"-0.00021096000000","FILE":"3163138","SITE":"AFETR","CLASSIFICATION_TYPE":"U","REF_FRAME":"TEME","OBJECT_TYPE":"PAYLOAD","PERIAPSIS":"548.815","MEAN_MOTION_DOT":"-0.00003350","REV_AT_EPOCH":"6385"},{"ELEMENT_SET_NO":"999","MEAN_MOTION_DDOT":"0.0000000000000","RA_OF_ASC_NODE":"310.3018","TLE_LINE2":"2 46171  53.0540 310.3018 0001361  74.2696 285.8443 15.06376598 65408","PERIOD":"95.594","INCLINATION":"53.0540","EPHEMERIS_TYPE":"0","GP_ID":"187190358","MEAN_MOTION":"15.06376598","OBJECT_ID":"2020-057BG","APOAPSIS":"548.228","EPOCH":"2021-10-14T18:48:39.327264","TLE_LINE1":"1 46171U 20057BG  21287.78378851 -.00001845  00000-0 -10508-3 0  9997","RCS_SIZE":"LARGE","ECCENTRICITY":"0.00013610","REV_AT_EPOCH":"6540","MEAN_MOTION_DOT":"-0.00001845","PERIAPSIS":"546.343","OBJECT_TYPE":"PAYLOAD","REF_FRAME":"TEME","CLASSIFICATION_TYPE":"U","CENTER_NAME":"EARTH","MEAN_ELEMENT_THEORY":"SGP4","FILE":"3163138","SITE":"AFETR","BSTAR":"-0.00010508000000","SEMIMAJOR_AXIS":"6925.420","DECAY_DATE":null,"ARG_OF_PERICENTER":"74.2696","NORAD_CAT_ID":"46171","LAUNCH_DATE":"2020-08-18","COUNTRY_CODE":"US","TIME_SYSTEM":"UTC","MEAN_ANOMALY":"285.8443","OBJECT_NAME":"STARLINK-1633"},{"MEAN_ANOMALY":"274.2985","OBJECT_NAME":"STARLINK-1635","TIME_SYSTEM":"UTC","SEMIMAJOR_AXIS":"6925.357","LAUNCH_DATE":"2020-08-18","COUNTRY_CODE":"US","NORAD_CAT_ID":"46172","DECAY_DATE":null,"ARG_OF_PERICENTER":"85.8133","CLASSIFICATION_TYPE":"U","REF_FRAME":"TEME","SITE":"AFETR","FILE":"3163138","BSTAR":"-0.00005898200000","CENTER_NAME":"EARTH","MEAN_ELEMENT_THEORY":"SGP4","OBJECT_TYPE":"PAYLOAD","PERIAPSIS":"546.443","REV_AT_EPOCH":"6540","MEAN_MOTION_DOT":"-0.00001160","TLE_LINE1":"1 46172U 20057BH  21287.79851711 -.00001160  00000-0 -58982-4 0  9999","RCS_SIZE":"LARGE","ECCENTRICITY":"0.00011250","APOAPSIS":"548.001","EPOCH":"2021-10-14T19:09:51.878304","EPHEMERIS_TYPE":"0","OBJECT_ID":"2020-057BH","GP_ID":"187188606","MEAN_MOTION":"15.06397241","PERIOD":"95.592","INCLINATION":"53.0552","TLE_LINE2":"2 46172  53.0552 310.2419 0001125  85.8133 274.2985 15.06397241 65409","RA_OF_ASC_NODE":"310.2419","MEAN_MOTION_DDOT":"0.0000000000000","ELEMENT_SET_NO":"999"},{"RCS_SIZE":"LARGE","TLE_LINE1":"1 46173U 20057BJ  21287.84460530 -.00002432  00000-0 -14452-3 0  9997","ECCENTRICITY":"0.00012070","EPHEMERIS_TYPE":"0","GP_ID":"187188856","MEAN_MOTION":"15.06383062","OBJECT_ID":"2020-057BJ","APOAPSIS":"548.101","EPOCH":"2021-10-14T20:16:13.897920","RA_OF_ASC_NODE":"330.0316","TLE_LINE2":"2 46173  53.0554 330.0316 0001207  90.2141 269.8986 15.06383062 63874","PERIOD":"95.593","INCLINATION":"53.0554","ELEMENT_SET_NO":"999","MEAN_MOTION_DDOT":"0.0000000000000","TIME_SYSTEM":"UTC","MEAN_ANOMALY":"269.8986","OBJECT_NAME":"STARLINK-1640","CLASSIFICATION_TYPE":"U","REF_FRAME":"TEME","CENTER_NAME":"EARTH","MEAN_ELEMENT_THEORY":"SGP4","FILE":"3163138","SITE":"AFETR","BSTAR":"-0.00014452000000","SEMIMAJOR_AXIS":"6925.400","DECAY_DATE":null,"ARG_OF_PERICENTER":"90.2141","NORAD_CAT_ID":"46173","LAUNCH_DATE":"2020-08-18","COUNTRY_CODE":"US","OBJECT_TYPE":"PAYLOAD","REV_AT_EPOCH":"6387","MEAN_MOTION_DOT":"-0.00002432","PERIAPSIS":"546.430"},{"MEAN_MOTION":"15.06375803","GP_ID":"187190108","OBJECT_ID":"2020-057BK","EPHEMERIS_TYPE":"0","EPOCH":"2021-10-14T20:26:50.624448","APOAPSIS":"548.223","ECCENTRICITY":"0.00013500","RCS_SIZE":"LARGE","TLE_LINE1":"1 46174U 20057BK  21287.85197482  .00000585  00000-0  58226-4 0  9995","ELEMENT_SET_NO":"999","MEAN_MOTION_DDOT":"0.0000000000000","TLE_LINE2":"2 46174  53.0550 329.9903 0001350  81.2167 278.8974 15.06375803 63878","RA_OF_ASC_NODE":"329.9903","INCLINATION":"53.0550","PERIOD":"95.594","CENTER_NAME":"EARTH","MEAN_ELEMENT_THEORY":"SGP4","BSTAR":"0.00005822600000","FILE":"3163138","SITE":"AFETR","CLASSIFICATION_TYPE":"U","REF_FRAME":"TEME","ARG_OF_PERICENTER":"81.2167","DECAY_DATE":null,"NORAD_CAT_ID":"46174","LAUNCH_DATE":"2020-08-18","COUNTRY_CODE":"US","SEMIMAJOR_AXIS":"6925.423","TIME_SYSTEM":"UTC","OBJECT_NAME":"STARLINK-1641","MEAN_ANOMALY":"278.8974","MEAN_MOTION_DOT":"0.00000585","REV_AT_EPOCH":"6387","PERIAPSIS":"546.353","OBJECT_TYPE":"PAYLOAD"},{"TLE_LINE2":"2 46325  53.0557 344.9472 0001230  98.6905 261.4223 15.06388266 63366","RA_OF_ASC_NODE":"344.9472","PERIOD":"95.593","INCLINATION":"53.0557","MEAN_MOTION_DDOT":"0.0000000000000","ELEMENT_SET_NO":"999","ECCENTRICITY":"0.00012300","RCS_SIZE":"LARGE","TLE_LINE1":"1 46325U 20062A   21287.86349405 -.00002752  00000-0 -16597-3 0  9998","OBJECT_ID":"2020-062A","GP_ID":"187188618","MEAN_MOTION":"15.06388266","EPHEMERIS_TYPE":"0","EPOCH":"2021-10-14T20:43:25.885920","APOAPSIS":"548.101","OBJECT_TYPE":"PAYLOAD","MEAN_MOTION_DOT":"-0.00002752","REV_AT_EPOCH":"6336","PERIAPSIS":"546.398","TIME_SYSTEM":"UTC","OBJECT_NAME":"STARLINK-1734","MEAN_ANOMALY":"261.4223","BSTAR":"-0.00016597000000","FILE":"3163138","SITE":"AFETR","MEAN_ELEMENT_THEORY":"SGP4","CENTER_NAME":"EARTH","CLASSIFICATION_TYPE":"U","REF_FRAME":"TEME","NORAD_CAT_ID":"46325","LAUNCH_DATE":"2020-09-03","COUNTRY_CODE":"US","ARG_OF_PERICENTER":"98.6905","DECAY_DATE":null,"SEMIMAJOR_AXIS":"6925.385"}];
